{
  "type": "FeatureCollection",
  "features": [
    {
      "type": "Feature",
      "properties": {
        "norad_id": 32376,
        "name": "COSMO-SKYMED 2",
        "group": "resource",
        "lat": -27.57391841923341,
        "lon": -174.33766755915892,
        "alt_km": 628.639168741809,
        "timestamp": "2025-12-26T09:30:53.284417+00:00",
        "meta_object_name": "COSMO-SKYMED 2",
        "meta_object_id": "2007-059A",
        "meta_epoch": "2025-12-25T23:55:07.467744",
        "meta_mean_motion": 14.8215862,
        "meta_eccentricity": 0.00013051,
        "meta_inclination": 97.8806,
        "meta_ra_of_asc_node": 181.1208,
        "meta_arg_of_pericenter": 83.119,
        "meta_mean_anomaly": 277.0172,
        "meta_ephemeris_type": 0,
        "meta_classification_type": "U",
        "meta_norad_cat_id": 32376,
        "meta_element_set_no": 999,
        "meta_rev_at_epoch": 97634,
        "meta_bstar": 7.4781535e-05,
        "meta_mean_motion_dot": 5.43e-06,
        "meta_mean_motion_ddot": 0,
        "tle_line1": "1 32376U 07059A   25359.99661421  .00000543  00000+0  74782-4 0  9997",
        "tle_line2": "2 32376  97.8806 181.1208 0001305  83.1190 277.0172 14.82158620976345"
      },
      "geometry": {
        "type": "Point",
        "coordinates": [
          -174.33766755915892,
          -27.57391841923341
        ]
      }
    },
    {
      "type": "Feature",
      "properties": {
        "norad_id": 32382,
        "name": "RADARSAT-2",
        "group": "resource",
        "lat": -59.566859436465805,
        "lon": 169.8963695242669,
        "alt_km": 799.6183222631626,
        "timestamp": "2025-12-26T09:30:53.284428+00:00",
        "meta_object_name": "RADARSAT-2",
        "meta_object_id": "2007-061A",
        "meta_epoch": "2025-12-25T23:59:47.344992",
        "meta_mean_motion": 14.29984851,
        "meta_eccentricity": 0.00011168,
        "meta_inclination": 98.5798,
        "meta_ra_of_asc_node": 4.3968,
        "meta_arg_of_pericenter": 85.8212,
        "meta_mean_anomaly": 274.3098,
        "meta_ephemeris_type": 0,
        "meta_classification_type": "U",
        "meta_norad_cat_id": 32382,
        "meta_element_set_no": 999,
        "meta_rev_at_epoch": 94120,
        "meta_bstar": -3.429198e-06,
        "meta_mean_motion_dot": -5.2e-07,
        "meta_mean_motion_ddot": 0,
        "tle_line1": "1 32382U 07061A   25359.99985353 -.00000052  00000+0 -34292-5 0  9990",
        "tle_line2": "2 32382  98.5798   4.3968 0001116  85.8212 274.3098 14.29984851941201"
      },
      "geometry": {
        "type": "Point",
        "coordinates": [
          169.8963695242669,
          -59.566859436465805
        ]
      }
    },
    {
      "type": "Feature",
      "properties": {
        "norad_id": 32783,
        "name": "CARTOSAT-2A",
        "group": "resource",
        "lat": -45.12360348615938,
        "lon": 57.695079276767586,
        "alt_km": 631.7468313458103,
        "timestamp": "2025-12-26T09:30:53.284440+00:00",
        "meta_object_name": "CARTOSAT-2A",
        "meta_object_id": "2008-021A",
        "meta_epoch": "2025-12-26T04:50:57.162336",
        "meta_mean_motion": 14.78954977,
        "meta_eccentricity": 0.0010916,
        "meta_inclination": 97.7908,
        "meta_ra_of_asc_node": 49.6034,
        "meta_arg_of_pericenter": 319.7393,
        "meta_mean_anomaly": 40.3009,
        "meta_ephemeris_type": 0,
        "meta_classification_type": "U",
        "meta_norad_cat_id": 32783,
        "meta_element_set_no": 999,
        "meta_rev_at_epoch": 95323,
        "meta_bstar": 8.9725e-05,
        "meta_mean_motion_dot": 6.12e-06,
        "meta_mean_motion_ddot": 0,
        "tle_line1": "1 32783U 08021A   25360.20205049  .00000612  00000+0  89725-4 0  9995",
        "tle_line2": "2 32783  97.7908  49.6034 0010916 319.7393  40.3009 14.78954977953232"
      },
      "geometry": {
        "type": "Point",
        "coordinates": [
          57.695079276767586,
          -45.12360348615938
        ]
      }
    },
    {
      "type": "Feature",
      "properties": {
        "norad_id": 33320,
        "name": "HUANJING 1A (HJ-1A)",
        "group": "resource",
        "lat": 38.68064196496491,
        "lon": -18.056457673729074,
        "alt_km": 606.7501110590583,
        "timestamp": "2025-12-26T09:30:53.284476+00:00",
        "meta_object_name": "HUANJING 1A (HJ-1A)",
        "meta_object_id": "2008-041A",
        "meta_epoch": "2025-12-26T04:28:59.352384",
        "meta_mean_motion": 14.83435533,
        "meta_eccentricity": 0.0019119,
        "meta_inclination": 97.6552,
        "meta_ra_of_asc_node": 347.9242,
        "meta_arg_of_pericenter": 351.3642,
        "meta_mean_anomaly": 8.724,
        "meta_ephemeris_type": 0,
        "meta_classification_type": "U",
        "meta_norad_cat_id": 33320,
        "meta_element_set_no": 999,
        "meta_rev_at_epoch": 93275,
        "meta_bstar": 0.00023251,
        "meta_mean_motion_dot": 1.864e-05,
        "meta_mean_motion_ddot": 0,
        "tle_line1": "1 33320U 08041A   25360.18679806  .00001864  00000+0  23251-3 0  9999",
        "tle_line2": "2 33320  97.6552 347.9242 0019119 351.3642   8.7240 14.83435533932759"
      },
      "geometry": {
        "type": "Point",
        "coordinates": [
          -18.056457673729074,
          38.68064196496491
        ]
      }
    },
    {
      "type": "Feature",
      "properties": {
        "norad_id": 33321,
        "name": "HUANJING 1B (HJ-1B)",
        "group": "resource",
        "lat": -51.10785694891224,
        "lon": 162.20645751057813,
        "alt_km": 652.1668320801737,
        "timestamp": "2025-12-26T09:30:53.284512+00:00",
        "meta_object_name": "HUANJING 1B (HJ-1B)",
        "meta_object_id": "2008-041B",
        "meta_epoch": "2025-12-26T05:14:04.570080",
        "meta_mean_motion": 14.82859169,
        "meta_eccentricity": 0.0037683,
        "meta_inclination": 97.641,
        "meta_ra_of_asc_node": 351.6158,
        "meta_arg_of_pericenter": 33.0581,
        "meta_mean_anomaly": 327.2977,
        "meta_ephemeris_type": 0,
        "meta_classification_type": "U",
        "meta_norad_cat_id": 33321,
        "meta_element_set_no": 999,
        "meta_rev_at_epoch": 93277,
        "meta_bstar": 0.00027536,
        "meta_mean_motion_dot": 2.206e-05,
        "meta_mean_motion_ddot": 0,
        "tle_line1": "1 33321U 08041B   25360.21810845  .00002206  00000+0  27536-3 0  9995",
        "tle_line2": "2 33321  97.6410 351.6158 0037683  33.0581 327.2977 14.82859169932775"
      },
      "geometry": {
        "type": "Point",
        "coordinates": [
          162.20645751057813,
          -51.10785694891224
        ]
      }
    },
    {
      "type": "Feature",
      "properties": {
        "norad_id": 33331,
        "name": "GEOEYE 1",
        "group": "resource",
        "lat": 48.66188796655144,
        "lon": 62.159635562874655,
        "alt_km": 675.7498085805819,
        "timestamp": "2025-12-26T09:30:53.284529+00:00",
        "meta_object_name": "GEOEYE 1",
        "meta_object_id": "2008-042A",
        "meta_epoch": "2025-12-26T02:43:55.807104",
        "meta_mean_motion": 14.64717692,
        "meta_eccentricity": 0.0003049,
        "meta_inclination": 98.1236,
        "meta_ra_of_asc_node": 71.2251,
        "meta_arg_of_pericenter": 227.1218,
        "meta_mean_anomaly": 132.9729,
        "meta_ephemeris_type": 0,
        "meta_classification_type": "U",
        "meta_norad_cat_id": 33331,
        "meta_element_set_no": 999,
        "meta_rev_at_epoch": 92481,
        "meta_bstar": 0.00011804,
        "meta_mean_motion_dot": 5.81e-06,
        "meta_mean_motion_ddot": 0,
        "tle_line1": "1 33331U 08042A   25360.11384036  .00000581  00000+0  11804-3 0  9999",
        "tle_line2": "2 33331  98.1236  71.2251 0003049 227.1218 132.9729 14.64717692924815"
      },
      "geometry": {
        "type": "Point",
        "coordinates": [
          62.159635562874655,
          48.66188796655144
        ]
      }
    },
    {
      "type": "Feature",
      "properties": {
        "norad_id": 33396,
        "name": "THEOS",
        "group": "resource",
        "lat": -54.650570011449474,
        "lon": -134.21367534740364,
        "alt_km": 832.6851211972808,
        "timestamp": "2025-12-26T09:30:53.284540+00:00",
        "meta_object_name": "THEOS",
        "meta_object_id": "2008-049A",
        "meta_epoch": "2025-12-26T03:20:10.735296",
        "meta_mean_motion": 14.20099988,
        "meta_eccentricity": 0.0001189,
        "meta_inclination": 98.5844,
        "meta_ra_of_asc_node": 57.8319,
        "meta_arg_of_pericenter": 93.8745,
        "meta_mean_anomaly": 266.2567,
        "meta_ephemeris_type": 0,
        "meta_classification_type": "U",
        "meta_norad_cat_id": 33396,
        "meta_element_set_no": 999,
        "meta_rev_at_epoch": 89340,
        "meta_bstar": 0.00012087,
        "meta_mean_motion_dot": 2.15e-06,
        "meta_mean_motion_ddot": 0,
        "tle_line1": "1 33396U 08049A   25360.13901314  .00000215  00000+0  12087-3 0  9991",
        "tle_line2": "2 33396  98.5844  57.8319 0001189  93.8745 266.2567 14.20099988893400"
      },
      "geometry": {
        "type": "Point",
        "coordinates": [
          -134.21367534740364,
          -54.650570011449474
        ]
      }
    }
  ]
}